[
    {
        "Altitude(m)": 556769.5023290423,
        "Argument of Periapsis(deg)": 0.019868973332140504,
        "Eccentricity": 0.0,
        "Inclination(deg)": 53.0,
        "Latitude(deg)": 39.19817206559082,
        "Longitude(deg)": -24.70549697144608,
        "Mean Anomaly(deg)": 52.09297860273276,
        "RAAN(deg)": 39.97043010558405,
        "Satellite Name": "Starlink Shell 1 177",
        "Satellite Number": 177,
        "Semi-Major Axis(m)": 6931778.249405717,
        "Time(s)": 570
    },
    {
        "Altitude(m)": 556852.799092281,
        "Argument of Periapsis(deg)": 0.02021755181165174,
        "Eccentricity": 0.0,
        "Inclination(deg)": 53.0,
        "Latitude(deg)": 39.59384040160952,
        "Longitude(deg)": -24.117755643259468,
        "Mean Anomaly(deg)": 52.719809806289476,
        "RAAN(deg)": 39.96991133550658,
        "Satellite Name": "Starlink Shell 1 177",
        "Satellite Number": 177,
        "Semi-Major Axis(m)": 6931778.249405717,
        "Time(s)": 580
    },
    {
        "Altitude(m)": 556935.918559466,
        "Argument of Periapsis(deg)": 0.020566130291162974,
        "Eccentricity": 0.0,
        "Inclination(deg)": 53.0,
        "Latitude(deg)": 39.98603791672641,
        "Longitude(deg)": -23.522855372233355,
        "Mean Anomaly(deg)": 53.3466410098462,
        "RAAN(deg)": 39.969392565429104,
        "Satellite Name": "Starlink Shell 1 177",
        "Satellite Number": 177,
        "Semi-Major Axis(m)": 6931778.249405717,
        "Time(s)": 590
    },
    {
        "Altitude(m)": 557018.806764514,
        "Argument of Periapsis(deg)": 0.020914708770674213,
        "Eccentricity": 0.0,
        "Inclination(deg)": 53.0,
        "Latitude(deg)": 40.37467730296162,
        "Longitude(deg)": -22.9206783096399,
        "Mean Anomaly(deg)": 53.97347221340292,
        "RAAN(deg)": 39.968873795351634,
        "Satellite Name": "Starlink Shell 1 177",
        "Satellite Number": 177,
        "Semi-Major Axis(m)": 6931778.249405717,
        "Time(s)": 600
    },
    {
        "Altitude(m)": 557101.4100693788,
        "Argument of Periapsis(deg)": 0.021263287250185448,
        "Eccentricity": 0.0,
        "Inclination(deg)": 53.0,
        "Latitude(deg)": 40.75966941436953,
        "Longitude(deg)": -22.311107725060587,
        "Mean Anomaly(deg)": 54.60030341695962,
        "RAAN(deg)": 39.968355025274164,
        "Satellite Name": "Starlink Shell 1 177",
        "Satellite Number": 177,
        "Semi-Major Axis(m)": 6931778.249405717,
        "Time(s)": 610
    },
    {
        "Altitude(m)": 557183.6751912526,
        "Argument of Periapsis(deg)": 0.021611865729696686,
        "Eccentricity": 0.0,
        "Inclination(deg)": 53.0,
        "Latitude(deg)": 41.14092325591103,
        "Longitude(deg)": -21.694027749398526,
        "Mean Anomaly(deg)": 55.227134620516324,
        "RAAN(deg)": 39.96783625519669,
        "Satellite Name": "Starlink Shell 1 177",
        "Satellite Number": 177,
        "Semi-Major Axis(m)": 6931778.249405717,
        "Time(s)": 620
    },
    {
        "Altitude(m)": 557265.5492295463,
        "Argument of Periapsis(deg)": 0.02196044420920792,
        "Eccentricity": 0.0,
        "Inclination(deg)": 53.0,
        "Latitude(deg)": 41.51834597561582,
        "Longitude(deg)": -21.06932481555005,
        "Mean Anomaly(deg)": 55.85396582407306,
        "RAAN(deg)": 39.96731748511922,
        "Satellite Name": "Starlink Shell 1 177",
        "Satellite Number": 177,
        "Semi-Major Axis(m)": 6931778.249405717,
        "Time(s)": 630
    },
    {
        "Altitude(m)": 557346.9796926524,
        "Argument of Periapsis(deg)": 0.02230902268871916,
        "Eccentricity": 0.0,
        "Inclination(deg)": 53.0,
        "Latitude(deg)": 41.89184286036125,
        "Longitude(deg)": -20.436886594801955,
        "Mean Anomaly(deg)": 56.48079702762976,
        "RAAN(deg)": 39.96679871504175,
        "Satellite Name": "Starlink Shell 1 177",
        "Satellite Number": 177,
        "Semi-Major Axis(m)": 6931778.249405717,
        "Time(s)": 640
    },
    {
        "Altitude(m)": 557427.9145244599,
        "Argument of Periapsis(deg)": 0.022657601168230398,
        "Eccentricity": 0.0,
        "Inclination(deg)": 53.0,
        "Latitude(deg)": 42.26131733559446,
        "Longitude(deg)": -19.796603472300976,
        "Mean Anomaly(deg)": 57.10762823118649,
        "RAAN(deg)": 39.96627994496426,
        "Satellite Name": "Starlink Shell 1 177",
        "Satellite Number": 177,
        "Semi-Major Axis(m)": 6931778.249405717,
        "Time(s)": 650
    },
    {
        "Altitude(m)": 557508.3021306095,
        "Argument of Periapsis(deg)": 0.023006179647741636,
        "Eccentricity": 0.0,
        "Inclination(deg)": 53.0,
        "Latitude(deg)": 42.62667096935532,
        "Longitude(deg)": -19.148368359552897,
        "Mean Anomaly(deg)": 57.7344594347432,
        "RAAN(deg)": 39.965761174886794,
        "Satellite Name": "Starlink Shell 1 177",
        "Satellite Number": 177,
        "Semi-Major Axis(m)": 6931778.249405717,
        "Time(s)": 660
    },
    {
        "Altitude(m)": 557588.0914045033,
        "Argument of Periapsis(deg)": 0.023354758127252868,
        "Eccentricity": 0.0,
        "Inclination(deg)": 53.0,
        "Latitude(deg)": 42.987803480962796,
        "Longitude(deg)": -18.492076525230967,
        "Mean Anomaly(deg)": 58.36129063829992,
        "RAAN(deg)": 39.96524240480932,
        "Satellite Name": "Starlink Shell 1 177",
        "Satellite Number": 177,
        "Semi-Major Axis(m)": 6931778.249405717,
        "Time(s)": 670
    },
    {
        "Altitude(m)": 557667.2317530034,
        "Argument of Periapsis(deg)": 0.023703336606764106,
        "Eccentricity": 0.0,
        "Inclination(deg)": 53.0,
        "Latitude(deg)": 43.3446127547413,
        "Longitude(deg)": -17.8276269573941,
        "Mean Anomaly(deg)": 58.98812184185664,
        "RAAN(deg)": 39.96472363473185,
        "Satellite Name": "Starlink Shell 1 177",
        "Satellite Number": 177,
        "Semi-Major Axis(m)": 6931778.249405717,
        "Time(s)": 680
    },
    {
        "Altitude(m)": 557745.67312189,
        "Argument of Periapsis(deg)": 0.024051915086275345,
        "Eccentricity": 0.0,
        "Inclination(deg)": 53.0,
        "Latitude(deg)": 43.69699485918394,
        "Longitude(deg)": -17.15492223150422,
        "Mean Anomaly(deg)": 59.614953045413344,
        "RAAN(deg)": 39.96420486465438,
        "Satellite Name": "Starlink Shell 1 177",
        "Satellite Number": 177,
        "Semi-Major Axis(m)": 6931778.249405717,
        "Time(s)": 690
    },
    {
        "Altitude(m)": 557823.3660209632,
        "Argument of Periapsis(deg)": 0.024400493565786583,
        "Eccentricity": 0.0,
        "Inclination(deg)": 53.0,
        "Latitude(deg)": 44.04484407195337,
        "Longitude(deg)": -16.473868397140038,
        "Mean Anomaly(deg)": 60.24178424897005,
        "RAAN(deg)": 39.9636860945769,
        "Satellite Name": "Starlink Shell 1 177",
        "Satellite Number": 177,
        "Semi-Major Axis(m)": 6931778.249405717,
        "Time(s)": 700
    },
    {
        "Altitude(m)": 557900.2615488776,
        "Argument of Periapsis(deg)": 0.024749072045297815,
        "Eccentricity": 0.0,
        "Inclination(deg)": 53.0,
        "Latitude(deg)": 44.3880529111306,
        "Longitude(deg)": -15.78437639618225,
        "Mean Anomaly(deg)": 60.86861545252678,
        "RAAN(deg)": 39.96316732449943,
        "Satellite Name": "Starlink Shell 1 177",
        "Satellite Number": 177,
        "Semi-Major Axis(m)": 6931778.249405717,
        "Time(s)": 710
    },
    {
        "Altitude(m)": 557976.3114176287,
        "Argument of Periapsis(deg)": 0.025097650524809053,
        "Eccentricity": 0.0,
        "Inclination(deg)": 53.0,
        "Latitude(deg)": 44.72651217313707,
        "Longitude(deg)": -15.086361986489488,
        "Mean Anomaly(deg)": 61.49544665608349,
        "RAAN(deg)": 39.96264855442196,
        "Satellite Name": "Starlink Shell 1 177",
        "Satellite Number": 177,
        "Semi-Major Axis(m)": 6931778.249405717,
        "Time(s)": 720
    },
    {
        "Altitude(m)": 558051.4679767074,
        "Argument of Periapsis(deg)": 0.02544622900432029,
        "Eccentricity": 0.0,
        "Inclination(deg)": 53.0,
        "Latitude(deg)": 45.060110977753524,
        "Longitude(deg)": -14.37974568354955,
        "Mean Anomaly(deg)": 62.12227785964021,
        "RAAN(deg)": 39.962129784344484,
        "Satellite Name": "Starlink Shell 1 177",
        "Satellite Number": 177,
        "Semi-Major Axis(m)": 6931778.249405717,
        "Time(s)": 730
    },
    {
        "Altitude(m)": 558125.684236923,
        "Argument of Periapsis(deg)": 0.02579480748383153,
        "Eccentricity": 0.0,
        "Inclination(deg)": 53.0,
        "Latitude(deg)": 45.38873682066033,
        "Longitude(deg)": -13.664454232418105,
        "Mean Anomaly(deg)": 62.74910906319691,
        "RAAN(deg)": 39.961611014267014,
        "Satellite Name": "Starlink Shell 1 177",
        "Satellite Number": 177,
        "Semi-Major Axis(m)": 6931778.249405717,
        "Time(s)": 740
    },
    {
        "Altitude(m)": 558198.9138938531,
        "Argument of Periapsis(deg)": 0.026143385963342765,
        "Eccentricity": 0.0,
        "Inclination(deg)": 53.0,
        "Latitude(deg)": 45.71227563393233,
        "Longitude(deg)": -12.940420583457104,
        "Mean Anomaly(deg)": 63.37594026675363,
        "RAAN(deg)": 39.961092244189544,
        "Satellite Name": "Starlink Shell 1 177",
        "Satellite Number": 177,
        "Semi-Major Axis(m)": 6931778.249405717,
        "Time(s)": 750
    }
]